{
  "type": "FeatureCollection",
  "features": [
    {
      "type": "Feature",
      "properties": {
        "norad_id": 35744,
        "name": "IRIDIUM 33 DEB",
        "group": "iridium-33-debris",
        "lat": 71.94728877185204,
        "lon": -27.327228765633755,
        "alt_km": 650.1081768113281,
        "timestamp": "2025-12-21T20:41:08.341575+00:00",
        "meta_object_name": "IRIDIUM 33 DEB",
        "meta_object_id": "1997-051RX",
        "meta_epoch": "2025-12-21T04:01:56.395776",
        "meta_mean_motion": 14.7109357,
        "meta_eccentricity": 0.00214028,
        "meta_inclination": 86.3292,
        "meta_ra_of_asc_node": 321.6267,
        "meta_arg_of_pericenter": 162.5213,
        "meta_mean_anomaly": 197.6745,
        "meta_ephemeris_type": 0,
        "meta_classification_type": "U",
        "meta_norad_cat_id": 35744,
        "meta_element_set_no": 999,
        "meta_rev_at_epoch": 87455,
        "meta_bstar": 0.00069742889,
        "meta_mean_motion_dot": 4.325e-05,
        "meta_mean_motion_ddot": 0,
        "tle_line1": "1 35744U 97051RX  25355.16801384  .00004325  00000+0  69743-3 0  9991",
        "tle_line2": "2 35744  86.3292 321.6267 0021402 162.5213 197.6745 14.71093570874556"
      },
      "geometry": {
        "type": "Point",
        "coordinates": [
          -27.327228765633755,
          71.94728877185204
        ]
      }
    },
    {
      "type": "Feature",
      "properties": {
        "norad_id": 35797,
        "name": "IRIDIUM 33 DEB",
        "group": "iridium-33-debris",
        "lat": -8.50139151331286,
        "lon": 146.32947542511909,
        "alt_km": 620.6358880834396,
        "timestamp": "2025-12-21T20:41:08.341584+00:00",
        "meta_object_name": "IRIDIUM 33 DEB",
        "meta_object_id": "1997-051SF",
        "meta_epoch": "2025-12-20T04:58:23.124576",
        "meta_mean_motion": 14.82943756,
        "meta_eccentricity": 0.00144438,
        "meta_inclination": 86.3358,
        "meta_ra_of_asc_node": 326.5409,
        "meta_arg_of_pericenter": 124.2299,
        "meta_mean_anomaly": 236.0295,
        "meta_ephemeris_type": 0,
        "meta_classification_type": "U",
        "meta_norad_cat_id": 35797,
        "meta_element_set_no": 999,
        "meta_rev_at_epoch": 87451,
        "meta_bstar": 0.0011307637,
        "meta_mean_motion_dot": 9.219e-05,
        "meta_mean_motion_ddot": 0,
        "tle_line1": "1 35797U 97051SF  25354.20721209  .00009219  00000+0  11308-2 0  9990",
        "tle_line2": "2 35797  86.3358 326.5409 0014443 124.2299 236.0295 14.82943756874511"
      },
      "geometry": {
        "type": "Point",
        "coordinates": [
          146.32947542511909,
          -8.50139151331286
        ]
      }
    },
    {
      "type": "Feature",
      "properties": {
        "norad_id": 35806,
        "name": "IRIDIUM 33 DEB",
        "group": "iridium-33-debris",
        "lat": 17.95440544542065,
        "lon": 17.799753091074958,
        "alt_km": 692.0429780076347,
        "timestamp": "2025-12-21T20:41:08.341593+00:00",
        "meta_object_name": "IRIDIUM 33 DEB",
        "meta_object_id": "1997-051SQ",
        "meta_epoch": "2025-12-16T08:46:37.248096",
        "meta_mean_motion": 14.57379748,
        "meta_eccentricity": 0.00158634,
        "meta_inclination": 86.3444,
        "meta_ra_of_asc_node": 19.032,
        "meta_arg_of_pericenter": 64.1996,
        "meta_mean_anomaly": 296.0847,
        "meta_ephemeris_type": 0,
        "meta_classification_type": "U",
        "meta_norad_cat_id": 35806,
        "meta_element_set_no": 999,
        "meta_rev_at_epoch": 86377,
        "meta_bstar": 0.00073764812,
        "meta_mean_motion_dot": 3.369e-05,
        "meta_mean_motion_ddot": 0,
        "tle_line1": "1 35806U 97051SQ  25350.36570889  .00003369  00000+0  73765-3 0  9996",
        "tle_line2": "2 35806  86.3444  19.0320 0015863  64.1996 296.0847 14.57379748863778"
      },
      "geometry": {
        "type": "Point",
        "coordinates": [
          17.799753091074958,
          17.95440544542065
        ]
      }
    },
    {
      "type": "Feature",
      "properties": {
        "norad_id": 35809,
        "name": "IRIDIUM 33 DEB",
        "group": "iridium-33-debris",
        "lat": -86.13087946683159,
        "lon": -137.12836378260934,
        "alt_km": 645.5615816714399,
        "timestamp": "2025-12-21T20:41:08.341602+00:00",
        "meta_object_name": "IRIDIUM 33 DEB",
        "meta_object_id": "1997-051ST",
        "meta_epoch": "2025-12-10T16:35:56.421600",
        "meta_mean_motion": 14.75629145,
        "meta_eccentricity": 0.00097103,
        "meta_inclination": 86.329,
        "meta_ra_of_asc_node": 336.2813,
        "meta_arg_of_pericenter": 251.0565,
        "meta_mean_anomaly": 108.9602,
        "meta_ephemeris_type": 0,
        "meta_classification_type": "U",
        "meta_norad_cat_id": 35809,
        "meta_element_set_no": 999,
        "meta_rev_at_epoch": 86777,
        "meta_bstar": 0.0026432017,
        "meta_mean_motion_dot": 0.00018102,
        "meta_mean_motion_ddot": 0,
        "tle_line1": "1 35809U 97051ST  25344.69162525  .00018102  00000+0  26432-2 0  9991",
        "tle_line2": "2 35809  86.3290 336.2813 0009710 251.0565 108.9602 14.75629145867777"
      },
      "geometry": {
        "type": "Point",
        "coordinates": [
          -137.12836378260934,
          -86.13087946683159
        ]
      }
    },
    {
      "type": "Feature",
      "properties": {
        "norad_id": 35846,
        "name": "IRIDIUM 33 DEB",
        "group": "iridium-33-debris",
        "lat": 57.47290944440543,
        "lon": 60.65419340303341,
        "alt_km": 741.0403102713753,
        "timestamp": "2025-12-21T20:41:08.341611+00:00",
        "meta_object_name": "IRIDIUM 33 DEB",
        "meta_object_id": "1997-051SW",
        "meta_epoch": "2025-12-20T14:27:58.084704",
        "meta_mean_motion": 14.43184351,
        "meta_eccentricity": 0.0019529,
        "meta_inclination": 86.3741,
        "meta_ra_of_asc_node": 55.4852,
        "meta_arg_of_pericenter": 145.7638,
        "meta_mean_anomaly": 214.4826,
        "meta_ephemeris_type": 0,
        "meta_classification_type": "U",
        "meta_norad_cat_id": 35846,
        "meta_element_set_no": 999,
        "meta_rev_at_epoch": 71442,
        "meta_bstar": 0.00034499,
        "meta_mean_motion_dot": 1.181e-05,
        "meta_mean_motion_ddot": 0,
        "tle_line1": "1 35846U 97051SW  25354.60275561  .00001181  00000+0  34499-3 0  9991",
        "tle_line2": "2 35846  86.3741  55.4852 0019529 145.7638 214.4826 14.43184351714425"
      },
      "geometry": {
        "type": "Point",
        "coordinates": [
          60.65419340303341,
          57.47290944440543
        ]
      }
    },
    {
      "type": "Feature",
      "properties": {
        "norad_id": 35848,
        "name": "IRIDIUM 33 DEB",
        "group": "iridium-33-debris",
        "lat": -44.84857719745382,
        "lon": 8.419054026259039,
        "alt_km": 645.6961863807874,
        "timestamp": "2025-12-21T20:41:08.341621+00:00",
        "meta_object_name": "IRIDIUM 33 DEB",
        "meta_object_id": "1997-051SY",
        "meta_epoch": "2025-12-20T18:54:17.008704",
        "meta_mean_motion": 14.78786946,
        "meta_eccentricity": 0.00088391,
        "meta_inclination": 86.3889,
        "meta_ra_of_asc_node": 12.5039,
        "meta_arg_of_pericenter": 160.7491,
        "meta_mean_anomaly": 199.4066,
        "meta_ephemeris_type": 0,
        "meta_classification_type": "U",
        "meta_norad_cat_id": 35848,
        "meta_element_set_no": 999,
        "meta_rev_at_epoch": 66809,
        "meta_bstar": 0.00088484231,
        "meta_mean_motion_dot": 6.531e-05,
        "meta_mean_motion_ddot": 0,
        "tle_line1": "1 35848U 97051SY  25354.78769686  .00006531  00000+0  88484-3 0  9995",
        "tle_line2": "2 35848  86.3889  12.5039 0008839 160.7491 199.4066 14.78786946668092"
      },
      "geometry": {
        "type": "Point",
        "coordinates": [
          8.419054026259039,
          -44.84857719745382
        ]
      }
    },
    {
      "type": "Feature",
      "properties": {
        "norad_id": 35850,
        "name": "IRIDIUM 33 DEB",
        "group": "iridium-33-debris",
        "lat": -73.0058449949784,
        "lon": -31.962125222116327,
        "alt_km": 644.6743760010077,
        "timestamp": "2025-12-21T20:41:08.341630+00:00",
        "meta_object_name": "IRIDIUM 33 DEB",
        "meta_object_id": "1997-051TA",
        "meta_epoch": "2025-12-17T06:35:50.424288",
        "meta_mean_motion": 14.78922738,
        "meta_eccentricity": 0.00098245,
        "meta_inclination": 86.3492,
        "meta_ra_of_asc_node": 342.1832,
        "meta_arg_of_pericenter": 168.4252,
        "meta_mean_anomaly": 191.7196,
        "meta_ephemeris_type": 0,
        "meta_classification_type": "U",
        "meta_norad_cat_id": 35850,
        "meta_element_set_no": 999,
        "meta_rev_at_epoch": 71424,
        "meta_bstar": 0.0012101447,
        "meta_mean_motion_dot": 8.956e-05,
        "meta_mean_motion_ddot": 0,
        "tle_line1": "1 35850U 97051TA  25351.27488917  .00008956  00000+0  12101-2 0  9999",
        "tle_line2": "2 35850  86.3492 342.1832 0009824 168.4252 191.7196 14.78922738714242"
      },
      "geometry": {
        "type": "Point",
        "coordinates": [
          -31.962125222116327,
          -73.0058449949784
        ]
      }
    }
  ]
}